[{"OBJECT_NAME":"STARLINK-1329","OBJECT_ID":"2020-025A","EPOCH":"2026-03-09T07:41:14.717472","MEAN_MOTION":15.56178822,"ECCENTRICITY":0.00013748,"INCLINATION":53.05,"RA_OF_ASC_NODE":83.1377,"ARG_OF_PERICENTER":343.8694,"MEAN_ANOMALY":16.2272,"EPHEMERIS_TYPE":0,"CLASSIFICATION_TYPE":"U","NORAD_CAT_ID":45531,"ELEMENT_SET_NO":999,"REV_AT_EPOCH":32539,"BSTAR":0.0017556532,"MEAN_MOTION_DOT":0.00126679,"MEAN_MOTION_DDOT":0},{"OBJECT_NAME":"GXIBA-1","OBJECT_ID":"1998-067YA","EPOCH":"2026-03-09T07:32:56.030496","MEAN_MOTION":15.54259962,"ECCENTRICITY":0.00110131,"INCLINATION":51.63,"RA_OF_ASC_NODE":73.4032,"ARG_OF_PERICENTER":174.4815,"MEAN_ANOMALY":185.6299,"EPHEMERIS_TYPE":0,"CLASSIFICATION_TYPE":"U","NORAD_CAT_ID":67684,"ELEMENT_SET_NO":999,"REV_AT_EPOCH":473,"BSTAR":0.0011905476,"MEAN_MOTION_DOT":0.00079693,"MEAN_MOTION_DDOT":0}]
